[{"OBJECT_NAME":"STARLINK-33912","OBJECT_ID":"2025-110M","EPOCH":"2026-03-09T07:27:39.389184","MEAN_MOTION":15.30193193,"ECCENTRICITY":0.00011879,"INCLINATION":53.1604,"RA_OF_ASC_NODE":28.5824,"ARG_OF_PERICENTER":87.8948,"MEAN_ANOMALY":272.2189,"EPHEMERIS_TYPE":0,"CLASSIFICATION_TYPE":"U","NORAD_CAT_ID":64107,"ELEMENT_SET_NO":999,"REV_AT_EPOCH":4582,"BSTAR":0.0010139502,"MEAN_MOTION_DOT":0.00029785,"MEAN_MOTION_DDOT":0},{"OBJECT_NAME":"ARC-1","OBJECT_ID":"2015-058F","EPOCH":"2026-03-09T11:16:24.767040","MEAN_MOTION":15.39473048,"ECCENTRICITY":0.00404032,"INCLINATION":64.7636,"RA_OF_ASC_NODE":93.5186,"ARG_OF_PERICENTER":65.9865,"MEAN_ANOMALY":294.5492,"EPHEMERIS_TYPE":0,"CLASSIFICATION_TYPE":"U","NORAD_CAT_ID":40969,"ELEMENT_SET_NO":999,"REV_AT_EPOCH":10163,"BSTAR":0.0010773685,"MEAN_MOTION_DOT":0.00043725,"MEAN_MOTION_DDOT":0}]
